{"type": "FeatureCollection", "features": [ {"type": "Feature", "properties": {"norad_id": 60989, "name": "SENTINEL-2C", "group": "resource", "lat": -49.78311513729904, "lon": 82.50598282571376, "alt_km": 796.7345261610917, "timestamp": "2025-12-25T22:42:16.654386+00:00", "meta": {"OBJECT_NAME": "SENTINEL-2C", "OBJECT_ID": "2024-157A", "EPOCH": "2025-12-25T04:28:44.329152", "MEAN_MOTION": 14.30817321, "ECCENTRICITY": 0.00013885, "INCLINATION": 98.5666, "RA_OF_ASC_NODE": 71.489, "ARG_OF_PERICENTER": 103.3683, "MEAN_ANOMALY": 256.7655, "EPHEMERIS_TYPE": 0, "CLASSIFICATION_TYPE": "U", "NORAD_CAT_ID": 60989, "ELEMENT_SET_NO": 999, "REV_AT_EPOCH": 6810, "BSTAR": 7.543274e-05, "MEAN_MOTION_DOT": 1.54e-06, "MEAN_MOTION_DDOT": 0}, "tle": {"line1": "1 60989U 24157A   25359.18662418  .00000154  00000+0  75433-4 0  9996", "line2": "2 60989  98.5666  71.4890 0001388 103.3683 256.7655 14.30817321 68108"}}, "geometry": {"type": "Point", "coordinates": [82.50598282571376, -49.78311513729904]}}, {"type": "Feature", "properties": {"norad_id": 61735, "name": "IONOSFERA-M 1", "group": "resource", "lat": -11.356040733448342, "lon": 47.92174010353273, "alt_km": 820.6738228379136, "timestamp": "2025-12-25T22:42:16.654399+00:00", "meta": {"OBJECT_NAME": "IONOSFERA-M 1", "OBJECT_ID": "2024-199A", "EPOCH": "2025-12-25T18:25:55.874784", "MEAN_MOTION": 14.2271687, "ECCENTRICITY": 3.12e-05, "INCLINATION": 98.7403, "RA_OF_ASC_NODE": 229.5157, "ARG_OF_PERICENTER": 4.7772, "MEAN_ANOMALY": 355.3409, "EPHEMERIS_TYPE": 0, "CLASSIFICATION_TYPE": "U", "NORAD_CAT_ID": 61735, "ELEMENT_SET_NO": 999, "REV_AT_EPOCH": 10304, "BSTAR": 4.6616e-05, "MEAN_MOTION_DOT": 6e-07, "MEAN_MOTION_DDOT": 0}, "tle": {"line1": "1 61735U 24199A   25359.76800781  .00000060  00000+0  46616-4 0  9990", "line2": "2 61735  98.7403 229.5157 0000312   4.7772 355.3409 14.22716870103044"}}, "geometry": {"type": "Point", "coordinates": [47.92174010353273, -11.356040733448342]}}, {"type": "Feature", "properties": {"norad_id": 61736, "name": "IONOSFERA-M 2", "group": "resource", "lat": 13.842185849477854, "lon": -132.5676292054756, "alt_km": 816.8702294823088, "timestamp": "2025-12-25T22:42:16.654410+00:00", "meta": {"OBJECT_NAME": "IONOSFERA-M 2", "OBJECT_ID": "2024-199B", "EPOCH": "2025-12-25T17:34:31.401696", "MEAN_MOTION": 14.22719041, "ECCENTRICITY": 0.0001865, "INCLINATION": 98.7394, "RA_OF_ASC_NODE": 229.3926, "ARG_OF_PERICENTER": 93.8396, "MEAN_ANOMALY": 266.2995, "EPHEMERIS_TYPE": 0, "CLASSIFICATION_TYPE": "U", "NORAD_CAT_ID": 61736, "ELEMENT_SET_NO": 999, "REV_AT_EPOCH": 10616, "BSTAR": 4.9519e-05, "MEAN_MOTION_DOT": 6.7e-07, "MEAN_MOTION_DDOT": 0}, "tle": {"line1": "1 61736U 24199B   25359.73230789  .00000067  00000+0  49519-4 0  9995", "line2": "2 61736  98.7394 229.3926 0001865  93.8396 266.2995 14.22719041106160"}}, "geometry": {"type": "Point", "coordinates": [-132.5676292054756, 13.842185849477854]}}, {"type": "Feature", "properties": {"norad_id": 63772, "name": "BIOMASS", "group": "resource", "lat": 6.24739652227463, "lon": 5.652878733675477, "alt_km": 671.0931466775673, "timestamp": "2025-12-25T22:42:16.654420+00:00", "meta": {"OBJECT_NAME": "BIOMASS", "OBJECT_ID": "2025-090A", "EPOCH": "2025-12-25T12:05:53.117664", "MEAN_MOTION": 14.67538757, "ECCENTRICITY": 0.0001045, "INCLINATION": 98.0694, "RA_OF_ASC_NODE": 184.3277, "ARG_OF_PERICENTER": 84.0094, "MEAN_ANOMALY": 276.1229, "EPHEMERIS_TYPE": 0, "CLASSIFICATION_TYPE": "U", "NORAD_CAT_ID": 63772, "ELEMENT_SET_NO": 999, "REV_AT_EPOCH": 3521, "BSTAR": 0.00023361, "MEAN_MOTION_DOT": 1.277e-05, "MEAN_MOTION_DDOT": 0}, "tle": {"line1": "1 63772U 25090A   25359.50408701  .00001277  00000+0  23361-3 0  9994", "line2": "2 63772  98.0694 184.3277 0001045  84.0094 276.1229 14.67538757 35213"}}, "geometry": {"type": "Point", "coordinates": [5.652878733675477, 6.24739652227463]}}, {"type": "Feature", "properties": {"norad_id": 64694, "name": "GOSAT-GW (IBUKI GW)", "group": "resource", "lat": 23.90754039567914, "lon": -68.37385136639017, "alt_km": 667.7798353481776, "timestamp": "2025-12-25T22:42:16.654430+00:00", "meta": {"OBJECT_NAME": "GOSAT-GW (IBUKI GW)", "OBJECT_ID": "2025-141A", "EPOCH": "2025-12-25T19:19:19.890048", "MEAN_MOTION": 14.67561107, "ECCENTRICITY": 0.0001427, "INCLINATION": 98.044, "RA_OF_ASC_NODE": 295.082, "ARG_OF_PERICENTER": 82.2494, "MEAN_ANOMALY": 277.8873, "EPHEMERIS_TYPE": 0, "CLASSIFICATION_TYPE": "U", "NORAD_CAT_ID": 64694, "ELEMENT_SET_NO": 999, "REV_AT_EPOCH": 2641, "BSTAR": 0.00019805, "MEAN_MOTION_DOT": 1.076e-05, "MEAN_MOTION_DDOT": 0}, "tle": {"line1": "1 64694U 25141A   25359.80509132  .00001076  00000+0  19805-3 0  9993", "line2": "2 64694  98.0440 295.0820 0001427  82.2494 277.8873 14.67561107 26418"}}, "geometry": {"type": "Point", "coordinates": [-68.37385136639017, 23.90754039567914]}}, {"type": "Feature", "properties": {"norad_id": 64876, "name": "IONOSFERA-M 3", "group": "resource", "lat": -2.4270949447881356, "lon": -38.19389808627958, "alt_km": 822.713697869207, "timestamp": "2025-12-25T22:42:16.654440+00:00", "meta": {"OBJECT_NAME": "IONOSFERA-M 3", "OBJECT_ID": "2025-155A", "EPOCH": "2025-12-25T19:20:14.565696", "MEAN_MOTION": 14.21444147, "ECCENTRICITY": 0.0001819, "INCLINATION": 98.5801, "RA_OF_ASC_NODE": 321.3031, "ARG_OF_PERICENTER": 38.9039, "MEAN_ANOMALY": 321.2269, "EPHEMERIS_TYPE": 0, "CLASSIFICATION_TYPE": "U", "NORAD_CAT_ID": 64876, "ELEMENT_SET_NO": 999, "REV_AT_EPOCH": 2177, "BSTAR": 5.9047e-05, "MEAN_MOTION_DOT": 8.6e-07, "MEAN_MOTION_DDOT": 0}, "tle": {"line1": "1 64876U 25155A   25359.80572414  .00000086  00000+0  59047-4 0  9996", "line2": "2 64876  98.5801 321.3031 0001819  38.9039 321.2269 14.21444147 21772"}}, "geometry": {"type": "Point", "coordinates": [-38.19389808627958, -2.4270949447881356]}}, {"type": "Feature", "properties": {"norad_id": 64877, "name": "IONOSFERA-M 4", "group": "resource", "lat": 1.4663788977330794, "lon": 141.58022166160848, "alt_km": 823.7489628783396, "timestamp": "2025-12-25T22:42:16.654451+00:00", "meta": {"OBJECT_NAME": "IONOSFERA-M 4", "OBJECT_ID": "2025-155B", "EPOCH": "2025-12-25T18:29:21.651072", "MEAN_MOTION": 14.21445306, "ECCENTRICITY": 0.0001256, "INCLINATION": 98.5801, "RA_OF_ASC_NODE": 321.1881, "ARG_OF_PERICENTER": 51.2037, "MEAN_ANOMALY": 308.9253, "EPHEMERIS_TYPE": 0, "CLASSIFICATION_TYPE": "U", "NORAD_CAT_ID": 64877, "ELEMENT_SET_NO": 999, "REV_AT_EPOCH": 2176, "BSTAR": 6.4601e-05, "MEAN_MOTION_DOT": 9.9e-07, "MEAN_MOTION_DDOT": 0}, "tle": {"line1": "1 64877U 25155B   25359.77038948  .00000099  00000+0  64601-4 0  9998", "line2": "2 64877  98.5801 321.1881 0001256  51.2037 308.9253 14.21445306 21767"}}, "geometry": {"type": "Point", "coordinates": [141.58022166160848, 1.4663788977330794]}}, {"type": "Feature", "properties": {"norad_id": 64899, "name": "MICROCARB", "group": "resource", "lat": -35.722738436808115, "lon": -110.72668605174685, "alt_km": 665.1549327831353, "timestamp": "2025-12-25T22:42:16.654461+00:00", "meta": {"OBJECT_NAME": "MICROCARB", "OBJECT_ID": "2025-156A", "EPOCH": "2025-12-25T16:50:02.395104", "MEAN_MOTION": 14.72077609, "ECCENTRICITY": 0.001765, "INCLINATION": 98.001, "RA_OF_ASC_NODE": 74.8383, "ARG_OF_PERICENTER": 105.9485, "MEAN_ANOMALY": 254.3669, "EPHEMERIS_TYPE": 0, "CLASSIFICATION_TYPE": "U", "NORAD_CAT_ID": 64899, "ELEMENT_SET_NO": 999, "REV_AT_EPOCH": 2244, "BSTAR": 0.0001274, "MEAN_MOTION_DOT": 7.53e-06, "MEAN_MOTION_DDOT": 0}, "tle": {"line1": "1 64899U 25156A   25359.70141661  .00000753  00000+0  12740-3 0  9996", "line2": "2 64899  98.0010  74.8383 0017650 105.9485 254.3669 14.72077609 22440"}}, "geometry": {"type": "Point", "coordinates": [-110.72668605174685, -35.722738436808115]}}, {"type": "Feature", "properties": {"norad_id": 64900, "name": "CO3D 3", "group": "resource", "lat": 21.501877582287953, "lon": 73.1753688934763, "alt_km": 504.55587657179603, "timestamp": "2025-12-25T22:42:16.654471+00:00", "meta": {"OBJECT_NAME": "CO3D 3", "OBJECT_ID": "2025-156B", "EPOCH": "2025-12-25T17:52:12.889632", "MEAN_MOTION": 15.20196222, "ECCENTRICITY": 0.00013, "INCLINATION": 97.4336, "RA_OF_ASC_NODE": 75.9252, "ARG_OF_PERICENTER": 69.836, "MEAN_ANOMALY": 290.3015, "EPHEMERIS_TYPE": 0, "CLASSIFICATION_TYPE": "U", "NORAD_CAT_ID": 64900, "ELEMENT_SET_NO": 999, "REV_AT_EPOCH": 2318, "BSTAR": 0.00016007, "MEAN_MOTION_DOT": 3.399e-05, "MEAN_MOTION_DDOT": 0}, "tle": {"line1": "1 64900U 25156B   25359.74459363  .00003399  00000+0  16007-3 0  9993", "line2": "2 64900  97.4336  75.9252 0001300  69.8360 290.3015 15.20196222 23183"}}, "geometry": {"type": "Point", "coordinates": [73.1753688934763, 21.501877582287953]}}, {"type": "Feature", "properties": {"norad_id": 64901, "name": "CO3D 4", "group": "resource", "lat": 20.64772404023973, "lon": 73.30346307047299, "alt_km": 505.8973272339408, "timestamp": "2025-12-25T22:42:16.654481+00:00", "meta": {"OBJECT_NAME": "CO3D 4", "OBJECT_ID": "2025-156C", "EPOCH": "2025-12-25T17:52:26.274720", "MEAN_MOTION": 15.20186394, "ECCENTRICITY": 0.0001319, "INCLINATION": 97.4336, "RA_OF_ASC_NODE": 75.9252, "ARG_OF_PERICENTER": 150.5076, "MEAN_ANOMALY": 209.6233, "EPHEMERIS_TYPE": 0, "CLASSIFICATION_TYPE": "U", "NORAD_CAT_ID": 64901, "ELEMENT_SET_NO": 999, "REV_AT_EPOCH": 2318, "BSTAR": 0.00020173, "MEAN_MOTION_DOT": 4.3e-05, "MEAN_MOTION_DDOT": 0}, "tle": {"line1": "1 64901U 25156C   25359.74474855  .00004300  00000+0  20173-3 0  9999", "line2": "2 64901  97.4336  75.9252 0001319 150.5076 209.6233 15.20186394 23180"}}, "geometry": {"type": "Point", "coordinates": [73.30346307047299, 20.64772404023973]}}]}